NORAD_CAT_ID,OBJECT_NAME,OBJECT_TYPE,EPOCH,MEAN_MOTION,ECCENTRICITY,INCLINATION,RA_OF_ASC_NODE,ARG_OF_PERICENTER,MEAN_ANOMALY,BSTAR,MEAN_MOTION_DOT,MEAN_MOTION_DDOT,TLE_LINE0,TLE_LINE1,TLE_LINE2,SEMIMAJOR_AXIS,PERIOD,APOGEE,PERIGEE,DECAYED
53861.0,STARLINK-4781,PAYLOAD,2024-01-11 23:44:23,15.08795522,0.0001389,53.2161,220.4035,90.8846,269.2305,0.00096506,0.00015086,0.0,0 STARLINK-4781,1 53861U 22114AV  24011.98916341  .00015086  00000-0  96506-3 0  9991,2 53861  53.2161 220.4035 0001389  90.8846 269.2305 15.08795522 73657,6918.016,95.44,540.842,538.92,0.0
53861.0,STARLINK-4781,PAYLOAD,2024-01-12 18:49:00,15.08840395,0.0001469,53.2169,216.8292,117.7588,242.3553,3.4072e-05,2.54e-06,0.0,0 STARLINK-4781,1 53861U 22114AV  24012.78403619  .00000254  00000-0  34072-4 0  9991,2 53861  53.2169 216.8292 0001469 117.7588 242.3553 15.08840395 73779,6917.879,95.438,540.76,538.728,0.0
53861.0,STARLINK-4781,PAYLOAD,2024-01-13 20:15:11,15.08830395,0.0001434,53.2165,212.0729,109.5338,250.5809,0.00021104,3.071e-05,0.0,0 STARLINK-4781,1 53861U 22114AV  24013.84387868  .00003071  00000-0  21104-3 0  9997,2 53861  53.2165 212.0729 0001434 109.5338 250.5809 15.08830395 73934,6917.91,95.438,540.767,538.783,0.0
53861.0,STARLINK-4781,PAYLOAD,2024-01-14 12:09:02,15.08837541,0.0001234,53.2159,209.1021,97.3291,262.7842,0.00011664,1.569e-05,0.0,0 STARLINK-4781,1 53861U 22114AV  24014.50627825  .00001569  00000-0  11664-3 0  9991,2 53861  53.2159 209.1021 0001234  97.3291 262.7842 15.08837541 74572,6917.888,95.438,540.607,538.899,0.0
53861.0,STARLINK-4781,PAYLOAD,2024-01-14 18:30:34,15.08841063,0.0001219,53.2158,207.9132,93.0635,267.0497,0.0001377,1.904e-05,0.0,0 STARLINK-4781,1 53861U 22114AV  24014.77123650  .00001904  00000-0  13770-3 0  9990,2 53861  53.2158 207.9132 0001219  93.0635 267.0497 15.08841063 74611,6917.877,95.437,540.585,538.899,0.0
53861.0,STARLINK-4781,PAYLOAD,2024-01-15 19:56:45,15.08841625,0.0001206,53.2157,203.1561,90.5976,269.5155,7.5727e-05,9.18e-06,0.0,0 STARLINK-4781,1 53861U 22114AV  24015.83107801  .00000918  00000-0  75727-4 0  9993,2 53861  53.2157 203.1561 0001206  90.5976 269.5155 15.08841625 74779,6917.875,95.437,540.575,538.906,0.0
53861.0,STARLINK-4781,PAYLOAD,2024-01-16 00:42:54,15.08843227,0.0001223,53.2157,202.2631,88.0731,272.0401,8.4546e-05,1.058e-05,0.0,0 STARLINK-4781,1 53861U 22114AV  24016.02979654  .00001058  00000-0  84546-4 0  9993,2 53861  53.2157 202.2631 0001223  88.0731 272.0401 15.08843227 74264,6917.871,95.437,540.582,538.889,0.0
53861.0,STARLINK-4781,PAYLOAD,2024-01-16 19:47:32,15.08841324,0.0001366,53.217,198.6919,95.0723,265.0425,-3.1257e-05,-7.85e-06,0.0,0 STARLINK-4781,1 53861U 22114AV  24016.82468163 -.00000785  00000-0 -31257-4 0  9998,2 53861  53.2170 198.6919 0001366  95.0723 265.0425 15.08841324 74380,6917.876,95.437,540.686,538.796,0.0
53861.0,STARLINK-4781,PAYLOAD,2024-01-16 21:22:55,15.08842271,0.0001311,53.2166,198.3942,97.5361,262.578,-2.7064e-05,-7.19e-06,0.0,0 STARLINK-4781,1 53861U 22114AV  24016.89092028 -.00000719  00000-0 -27064-4 0  9996,2 53861  53.2166 198.3942 0001311  97.5361 262.5780 15.08842271 74932,6917.873,95.437,540.645,538.832,0.0
53861.0,STARLINK-4781,PAYLOAD,2024-01-16 22:58:18,15.08843688,0.0001339,53.2169,198.0976,89.0528,271.0618,9.4002e-06,-1.38e-06,0.0,0 STARLINK-4781,1 53861U 22114AV  24016.95715892 -.00000138  00000-0  94002-5 0  9995,2 53861  53.2169 198.0976 0001339  89.0528 271.0618 15.08843688 74949,6917.869,95.437,540.66,538.808,0.0
53861.0,STARLINK-4781,PAYLOAD,2024-01-17 18:02:55,15.08845252,0.0001385,53.2172,194.529,81.8763,278.2386,9.2249e-05,1.181e-05,0.0,0 STARLINK-4781,1 53861U 22114AV  24017.75203572  .00001181  00000-0  92249-4 0  9999,2 53861  53.2172 194.5290 0001385  81.8763 278.2386 15.08845252 75069,6917.864,95.437,540.687,538.771,0.0
53861.0,STARLINK-4781,PAYLOAD,2024-01-18 11:32:10,15.0883922,0.0001408,53.2166,191.26,74.163,285.9518,0.00011506,1.544e-05,0.0,0 STARLINK-4781,1 53861U 22114AV  24018.48067909  .00001544  00000-0  11506-3 0  9991,2 53861  53.2166 191.2600 0001408  74.1630 285.9518 15.08839220 74637,6917.883,95.438,540.722,538.774,0.0
53861.0,STARLINK-4781,PAYLOAD,2024-01-18 17:53:43,15.08843366,0.0001359,53.2164,190.0715,73.2361,286.878,7.4876e-05,9.04e-06,0.0,0 STARLINK-4781,1 53861U 22114AV  24018.74563760  .00000904  00000-0  74876-4 0  9995,2 53861  53.2164 190.0715 0001359  73.2361 286.8780 15.08843366 75217,6917.87,95.437,540.675,538.795,0.0
53861.0,STARLINK-4781,PAYLOAD,2024-01-19 14:33:43,15.08842624,0.0001328,53.2168,186.2063,102.2558,257.8583,4.1434e-05,3.72e-06,0.0,0 STARLINK-4781,1 53861U 22114AV  24019.60675592  .00000372  00000-0  41434-4 0  9991,2 53861  53.2168 186.2063 0001328 102.2558 257.8583 15.08842624 75340,6917.872,95.437,540.656,538.819,0.0
53861.0,STARLINK-4781,PAYLOAD,2024-01-19 16:09:06,15.08843016,0.0001347,53.217,185.909,101.9268,258.1876,4.2591e-05,3.9e-06,0.0,0 STARLINK-4781,1 53861U 22114AV  24019.67299548  .00000390  00000-0  42591-4 0  9996,2 53861  53.2170 185.9090 0001347 101.9268 258.1876 15.08843016 74810,6917.871,95.437,540.668,538.804,0.0
53861.0,STARLINK-4781,PAYLOAD,2024-01-20 14:24:31,15.08834348,0.0001298,53.2168,181.747,94.01,266.1041,6.0468e-06,-1.92e-06,0.0,0 STARLINK-4781,1 53861U 22114AV  24020.60036348 -.00000192  00000-0  60468-5 0  9993,2 53861  53.2168 181.7470 0001298  94.0100 266.1041 15.08834348 75491,6917.898,95.438,540.661,538.865,0.0
53861.0,STARLINK-4781,PAYLOAD,2024-01-20 17:35:17,15.08836503,0.0001269,53.2158,181.1501,83.3382,276.7755,7.2385e-06,-1.73e-06,0.0,0 STARLINK-4781,1 53861U 22114AV  24020.73284239 -.00000173  00000-0  72385-5 0  9991,2 53861  53.2158 181.1501 0001269  83.3382 276.7755 15.08836503 74976,6917.891,95.438,540.634,538.878,0.0
53861.0,STARLINK-4781,PAYLOAD,2024-01-21 17:26:04,15.088439,0.0001321,53.216,176.6892,87.6789,272.4355,9.517e-05,1.227e-05,0.0,0 STARLINK-4781,1 53861U 22114AV  24021.72643689  .00001227  00000-0  95170-4 0  9995,2 53861  53.2160 176.6892 0001321  87.6789 272.4355 15.08843900 75124,6917.868,95.437,540.647,538.82,0.0
53861.0,STARLINK-4781,PAYLOAD,2024-01-22 17:16:51,15.08836149,0.0001332,53.2163,172.2282,84.7519,275.3625,5.7262e-05,6.23e-06,0.0,0 STARLINK-4781,1 53861U 22114AV  24022.72004618  .00000623  00000-0  57262-4 0  9998,2 53861  53.2163 172.2282 0001332  84.7519 275.3625 15.08836149 75278,6917.892,95.438,540.679,538.836,0.0
53861.0,STARLINK-4781,PAYLOAD,2024-01-23 15:32:15,15.08847341,0.0001362,53.2164,168.0652,83.9335,276.1813,5.3828e-05,5.69e-06,0.0,0 STARLINK-4781,1 53861U 22114AV  24023.64740003  .00000569  00000-0  53828-4 0  9998,2 53861  53.2164 168.0652 0001362  83.9335 276.1813 15.08847341 75413,6917.858,95.437,540.665,538.781,0.0
53861.0,STARLINK-4781,PAYLOAD,2024-01-23 17:07:38,15.08849356,0.0001392,53.2166,167.7679,78.17,281.9448,7.0678e-05,8.37e-06,0.0,0 STARLINK-4781,1 53861U 22114AV  24023.71363791  .00000837  00000-0  70678-4 0  9991,2 53861  53.2166 167.7679 0001392  78.1700 281.9448 15.08849356 75961,6917.852,95.437,540.68,538.754,0.0
53861.0,STARLINK-4781,PAYLOAD,2024-01-24 13:47:40,15.08837156,0.0001607,53.2185,163.8978,69.9176,290.1989,2.0969e-05,4.6e-07,0.0,0 STARLINK-4781,1 53861U 22114AV  24024.57476963  .00000046  00000-0  20969-4 0  9992,2 53861  53.2185 163.8978 0001607  69.9176 290.1989 15.08837156 76097,6917.889,95.438,540.866,538.642,0.0
53861.0,STARLINK-4781,PAYLOAD,2024-01-24 15:23:03,15.08837945,0.0001686,53.2187,163.6003,66.8169,293.3001,2.7133e-05,1.44e-06,0.0,0 STARLINK-4781,1 53861U 22114AV  24024.64100941  .00000144  00000-0  27133-4 0  9999,2 53861  53.2187 163.6003 0001686  66.8169 293.3001 15.08837945 75568,6917.887,95.438,540.918,538.585,0.0
53861.0,STARLINK-4781,PAYLOAD,2024-01-25 13:38:27,15.08842585,0.0001917,53.2194,159.4414,61.288,298.8305,-9.9272e-05,-1.868e-05,0.0,0 STARLINK-4781,1 53861U 22114AV  24025.56837458 -.00001868  00000-0 -99272-4 0  9990,2 53861  53.2194 159.4414 0001917  61.2880 298.8305 15.08842585 76240,6917.872,95.437,541.064,538.411,0.0
53861.0,STARLINK-4781,PAYLOAD,2024-01-25 15:13:50,15.08842904,0.0001901,53.2191,159.1443,63.312,296.8067,-8.8361e-05,-1.694e-05,0.0,0 STARLINK-4781,1 53861U 22114AV  24025.63461386 -.00001694  00000-0 -88361-4 0  9995,2 53861  53.2191 159.1443 0001901  63.3120 296.8067 15.08842904 76258,6917.872,95.437,541.052,538.421,0.0
53861.0,STARLINK-4781,PAYLOAD,2024-01-26 11:53:50,15.08842494,0.0001579,53.2179,155.287,109.5495,250.5667,0.00015107,2.117e-05,0.0,0 STARLINK-4781,1 53861U 22114AV  24026.49572429  .00002117  00000-0  15107-3 0  9997,2 53861  53.2179 155.2870 0001579 109.5495 250.5667 15.08842494 75845,6917.873,95.437,540.83,538.645,0.0
53861.0,STARLINK-4781,PAYLOAD,2024-01-26 13:29:13,15.08843553,0.0001568,53.2182,154.9878,96.9661,263.151,0.00015785,2.225e-05,0.0,0 STARLINK-4781,1 53861U 22114AV  24026.56196388  .00002225  00000-0  15785-3 0  9993,2 53861  53.2182 154.9878 0001568  96.9661 263.1510 15.08843553 76390,6917.87,95.437,540.819,538.65,0.0
53861.0,STARLINK-4781,PAYLOAD,2024-01-27 13:20:01,15.08842522,0.0001717,53.2173,150.5238,122.4242,237.6916,2.6898e-05,1.4e-06,0.0,0 STARLINK-4781,1 53861U 22114AV  24027.55556766  .00000140  00000-0  26898-4 0  9995,2 53861  53.2173 150.5238 0001717 122.4242 237.6916 15.08842522 76007,6917.873,95.437,540.925,538.55,0.0
53861.0,STARLINK-4781,PAYLOAD,2024-01-27 18:06:10,15.08843587,0.000131,53.2176,149.6282,96.8917,263.2224,3.8487e-05,3.25e-06,0.0,0 STARLINK-4781,1 53861U 22114AV  24027.75428744  .00000325  00000-0  38487-4 0  9993,2 53861  53.2176 149.6282 0001310  96.8917 263.2224 15.08843587 76571,6917.869,95.437,540.641,538.828,0.0
53861.0,STARLINK-4781,PAYLOAD,2024-01-28 11:35:25,15.08839733,0.0001429,53.2175,146.3546,100.6141,259.5012,-7.8657e-05,-1.54e-05,0.0,0 STARLINK-4781,1 53861U 22114AV  24028.48293475 -.00001540  00000-0 -78657-4 0  9990,2 53861  53.2175 146.3546 0001429 100.6141 259.5012 15.08839733 76145,6917.881,95.438,540.735,538.758,0.0
